{
  "type": "FeatureCollection",
  "features": [
    {
      "type": "Feature",
      "properties": {
        "norad_id": 52912,
        "name": "GAOFEN-12 03",
        "group": "resource",
        "lat": -7.1535308646247255,
        "lon": -110.68591511886999,
        "alt_km": 633.5906534015694,
        "timestamp": "2025-12-27T07:26:24.878927+00:00",
        "meta_object_name": "GAOFEN-12 03",
        "meta_object_id": "2022-069A",
        "meta_epoch": "2025-12-26T23:21:28.012896",
        "meta_mean_motion": 14.7964258,
        "meta_eccentricity": 0.00017384,
        "meta_inclination": 97.8474,
        "meta_ra_of_asc_node": 247.9934,
        "meta_arg_of_pericenter": 45.1311,
        "meta_mean_anomaly": 315.0042,
        "meta_ephemeris_type": 0,
        "meta_classification_type": "U",
        "meta_norad_cat_id": 52912,
        "meta_element_set_no": 999,
        "meta_rev_at_epoch": 18914,
        "meta_bstar": 0.00018166044,
        "meta_mean_motion_dot": 1.312e-05,
        "meta_mean_motion_ddot": 0,
        "tle_line1": "1 52912U 22069A   25360.97324089  .00001312  00000+0  18166-3 0  9997",
        "tle_line2": "2 52912  97.8474 247.9934 0001738  45.1311 315.0042 14.79642580189146"
      },
      "geometry": {
        "type": "Point",
        "coordinates": [
          -110.68591511886999,
          -7.1535308646247255
        ]
      }
    },
    {
      "type": "Feature",
      "properties": {
        "norad_id": 54754,
        "name": "SWOT",
        "group": "resource",
        "lat": 45.834139967562095,
        "lon": 74.24290445157811,
        "alt_km": 888.8459689876499,
        "timestamp": "2025-12-27T07:26:24.878938+00:00",
        "meta_object_name": "SWOT",
        "meta_object_id": "2022-173A",
        "meta_epoch": "2025-12-26T22:14:03.633216",
        "meta_mean_motion": 14.00169069,
        "meta_eccentricity": 4.302e-05,
        "meta_inclination": 77.6107,
        "meta_ra_of_asc_node": 267.8399,
        "meta_arg_of_pericenter": 80.7019,
        "meta_mean_anomaly": 279.4182,
        "meta_ephemeris_type": 0,
        "meta_classification_type": "U",
        "meta_norad_cat_id": 54754,
        "meta_element_set_no": 999,
        "meta_rev_at_epoch": 15504,
        "meta_bstar": 9.0678729e-05,
        "meta_mean_motion_dot": 1.31e-06,
        "meta_mean_motion_ddot": 0,
        "tle_line1": "1 54754U 22173A   25360.92643094  .00000131  00000+0  90679-4 0  9992",
        "tle_line2": "2 54754  77.6107 267.8399 0000430  80.7019 279.4182 14.00169069155045"
      },
      "geometry": {
        "type": "Point",
        "coordinates": [
          74.24290445157811,
          45.834139967562095
        ]
      }
    },
    {
      "type": "Feature",
      "properties": {
        "norad_id": 57654,
        "name": "GAOFEN-12 04",
        "group": "resource",
        "lat": 12.189772329334176,
        "lon": 98.5686614088762,
        "alt_km": 631.4032366486799,
        "timestamp": "2025-12-27T07:26:24.878948+00:00",
        "meta_object_name": "GAOFEN-12 04",
        "meta_object_id": "2023-123A",
        "meta_epoch": "2025-12-27T00:11:38.084352",
        "meta_mean_motion": 14.79742087,
        "meta_eccentricity": 0.00011922,
        "meta_inclination": 97.9129,
        "meta_ra_of_asc_node": 276.5496,
        "meta_arg_of_pericenter": 80.8213,
        "meta_mean_anomaly": 279.3134,
        "meta_ephemeris_type": 0,
        "meta_classification_type": "U",
        "meta_norad_cat_id": 57654,
        "meta_element_set_no": 999,
        "meta_rev_at_epoch": 12716,
        "meta_bstar": 0.00022430953,
        "meta_mean_motion_dot": 1.635e-05,
        "meta_mean_motion_ddot": 0,
        "tle_line1": "1 57654U 23123A   25361.00807968  .00001635  00000+0  22431-3 0  9992",
        "tle_line2": "2 57654  97.9129 276.5496 0001192  80.8213 279.3134 14.79742087127165"
      },
      "geometry": {
        "type": "Point",
        "coordinates": [
          98.5686614088762,
          12.189772329334176
        ]
      }
    },
    {
      "type": "Feature",
      "properties": {
        "norad_id": 59065,
        "name": "PARS 1",
        "group": "resource",
        "lat": -0.528096293386395,
        "lon": 152.48703783589082,
        "alt_km": 452.3005711403539,
        "timestamp": "2025-12-27T07:26:24.878958+00:00",
        "meta_object_name": "PARS 1",
        "meta_object_id": "2024-039Q",
        "meta_epoch": "2025-12-26T22:52:11.366976",
        "meta_mean_motion": 15.41304696,
        "meta_eccentricity": 0.00113133,
        "meta_inclination": 97.4655,
        "meta_ra_of_asc_node": 332.1913,
        "meta_arg_of_pericenter": 28.4975,
        "meta_mean_anomaly": 331.6888,
        "meta_ephemeris_type": 0,
        "meta_classification_type": "U",
        "meta_norad_cat_id": 59065,
        "meta_element_set_no": 999,
        "meta_rev_at_epoch": 10207,
        "meta_bstar": 0.00034918378,
        "meta_mean_motion_dot": 0.00014498,
        "meta_mean_motion_ddot": 0,
        "tle_line1": "1 59065U 24039Q   25360.95290934  .00014498  00000+0  34918-3 0  9993",
        "tle_line2": "2 59065  97.4655 332.1913 0011313  28.4975 331.6888 15.41304696102075"
      },
      "geometry": {
        "type": "Point",
        "coordinates": [
          152.48703783589082,
          -0.528096293386395
        ]
      }
    },
    {
      "type": "Feature",
      "properties": {
        "norad_id": 59371,
        "name": "RESURS-P 4",
        "group": "resource",
        "lat": -31.07039908469942,
        "lon": 122.94076026609707,
        "alt_km": 475.5993656472174,
        "timestamp": "2025-12-27T07:26:24.878968+00:00",
        "meta_object_name": "RESURS-P 4",
        "meta_object_id": "2024-061A",
        "meta_epoch": "2025-12-26T22:41:03.416352",
        "meta_mean_motion": 15.32212116,
        "meta_eccentricity": 7.96e-05,
        "meta_inclination": 97.2562,
        "meta_ra_of_asc_node": 306.9863,
        "meta_arg_of_pericenter": 91.8919,
        "meta_mean_anomaly": 268.2414,
        "meta_ephemeris_type": 0,
        "meta_classification_type": "U",
        "meta_norad_cat_id": 59371,
        "meta_element_set_no": 999,
        "meta_rev_at_epoch": 9738,
        "meta_bstar": 0.00015657958,
        "meta_mean_motion_dot": 4.793e-05,
        "meta_mean_motion_ddot": 0,
        "tle_line1": "1 59371U 24061A   25360.94517843  .00004793  00000+0  15658-3 0  9995",
        "tle_line2": "2 59371  97.2562 306.9863 0000796  91.8919 268.2414 15.32212116 97380"
      },
      "geometry": {
        "type": "Point",
        "coordinates": [
          122.94076026609707,
          -31.07039908469942
        ]
      }
    },
    {
      "type": "Feature",
      "properties": {
        "norad_id": 59625,
        "name": "LEGION 1",
        "group": "resource",
        "lat": -20.103913321815863,
        "lon": 78.5951004621611,
        "alt_km": 521.3335955626671,
        "timestamp": "2025-12-27T07:26:24.878978+00:00",
        "meta_object_name": "LEGION 1",
        "meta_object_id": "2024-081A",
        "meta_epoch": "2025-12-26T22:01:43.243968",
        "meta_mean_motion": 15.16619929,
        "meta_eccentricity": 0.00036625,
        "meta_inclination": 97.5192,
        "meta_ra_of_asc_node": 75.4352,
        "meta_arg_of_pericenter": 251.066,
        "meta_mean_anomaly": 109.0176,
        "meta_ephemeris_type": 0,
        "meta_classification_type": "U",
        "meta_norad_cat_id": 59625,
        "meta_element_set_no": 999,
        "meta_rev_at_epoch": 9142,
        "meta_bstar": 0.00029376465,
        "meta_mean_motion_dot": 5.676e-05,
        "meta_mean_motion_ddot": 0,
        "tle_line1": "1 59625U 24081A   25360.91786162  .00005676  00000+0  29376-3 0  9991",
        "tle_line2": "2 59625  97.5192  75.4352 0003662 251.0660 109.0176 15.16619929 91424"
      },
      "geometry": {
        "type": "Point",
        "coordinates": [
          78.5951004621611,
          -20.103913321815863
        ]
      }
    },
    {
      "type": "Feature",
      "properties": {
        "norad_id": 59626,
        "name": "LEGION 2",
        "group": "resource",
        "lat": 19.539581976887874,
        "lon": -101.40103259581696,
        "alt_km": 514.9184916033573,
        "timestamp": "2025-12-27T07:26:24.878988+00:00",
        "meta_object_name": "LEGION 2",
        "meta_object_id": "2024-081B",
        "meta_epoch": "2025-12-26T22:49:06.581568",
        "meta_mean_motion": 15.16635496,
        "meta_eccentricity": 0.00058371,
        "meta_inclination": 97.5197,
        "meta_ra_of_asc_node": 75.5558,
        "meta_arg_of_pericenter": 232.4671,
        "meta_mean_anomaly": 127.6033,
        "meta_ephemeris_type": 0,
        "meta_classification_type": "U",
        "meta_norad_cat_id": 59626,
        "meta_element_set_no": 999,
        "meta_rev_at_epoch": 9143,
        "meta_bstar": 0.00032976569,
        "meta_mean_motion_dot": 6.385e-05,
        "meta_mean_motion_ddot": 0,
        "tle_line1": "1 59626U 24081B   25360.95077062  .00006385  00000+0  32977-3 0  9997",
        "tle_line2": "2 59626  97.5197  75.5558 0005837 232.4671 127.6033 15.16635496 91436"
      },
      "geometry": {
        "type": "Point",
        "coordinates": [
          -101.40103259581696,
          19.539581976887874
        ]
      }
    }
  ]
}